NORAD_CAT_ID,EPOCH,MEAN_MOTION,ECCENTRICITY,INCLINATION,RA_OF_ASC_NODE,ARG_OF_PERICENTER,MEAN_ANOMALY,APOAPSIS,PERIAPSIS,BSTAR,COUNTRY_CODE,RCS_SIZE,NAME,LINE1,LINE2
12218,2025-08-09T02:07:45.160032,13.98051238,0.0051293,99.3714,93.7852,304.0978,219.004,937.888,863.219,0.00011039,US,SMALL,0 DELTA 1 DEB,1 12218U 78026BK  25221.08871713  .00000112  00000-0  11039-3 0  9995,2 12218  99.3714  93.7852 0051293 304.0978 219.0040 13.98051238266307
12222,2025-08-08T17:35:10.615200,13.92267793,0.0070019,99.0534,139.5178,264.6881,94.6287,971.802,869.591,3.4796e-05,US,SMALL,0 DELTA 1 DEB,1 12222U 78026BP  25220.73276175  .00000002  00000-0  34796-4 0  9996,2 12222  99.0534 139.5178 0070019 264.6881  94.6287 13.92267793257837
12223,2025-08-09T08:29:08.031552,14.04035924,0.0039867,99.207,245.8063,252.1318,107.5498,908.79,850.92,0.00024834,US,SMALL,0 DELTA 1 DEB,1 12223U 78026BQ  25221.35356518  .00000349  00000-0  24834-3 0  9991,2 12223  99.2070 245.8063 0039867 252.1318 107.5498 14.04035924279332
12225,2025-08-08T16:58:45.160032,14.08694293,0.0038007,99.128,139.9918,79.0433,341.6191,891.37,836.321,0.00036627,US,SMALL,0 DELTA 1 DEB,1 12225U 78026BS  25220.70746713  .00000589  00000-0  36627-3 0  9990,2 12225  99.1280 139.9918 0038007  79.0433 341.6191 14.08694293276250
12227,2025-08-08T16:27:48.551040,14.93323587,0.0071487,98.7805,16.317,136.9464,223.7376,637.379,537.787,0.00045755,US,SMALL,0 DELTA 1 DEB,1 12227U 78026BU  25220.68597860  .00004968  00000-0  45755-3 0  9993,2 12227  98.7805  16.3170 0071487 136.9464 223.7376 14.93323587353197
12230,2025-08-08T22:42:57.635424,14.95292427,0.0043211,97.9855,207.0356,40.811,319.6333,611.54,551.394,0.001101,US,SMALL,0 DELTA 1 DEB,1 12230U 78026BX  25220.94650041  .00012309  00000-0  11010-2 0  9991,2 12230  97.9855 207.0356 0043211  40.8110 319.6333 14.95292427354657
12234,2025-08-09T06:27:02.910816,14.03668913,0.0027323,99.2483,226.4387,243.6438,126.8905,900.954,861.286,-8.3815e-05,US,SMALL,0 DELTA 1 DEB,1 12234U 78026CB  25221.26878369 -.00000179  00000-0 -83815-4 0  9994,2 12234  99.2483 226.4387 0027323 243.6438 126.8905 14.03668913278377
12236,2025-08-08T02:49:04.584288,13.87626394,0.0214577,98.798,79.134,106.9076,43.5839,1093.928,779.998,0.0004796,US,SMALL,0 DELTA 1 DEB,1 12236U 78026CD  25220.11741417  .00000642  00000-0  47960-3 0  9995,2 12236  98.7980  79.1340 0214577 106.9076  43.5839 13.87626394236198
12237,2025-08-08T19:46:15.736800,13.95168555,0.0246706,98.8218,315.5633,149.7556,211.8112,1090.393,730.759,0.0037442,US,SMALL,0 DELTA 1 DEB,1 12237U 78026CE  25220.82379325  .00006482  00000-0  37442-2 0  9990,2 12237  98.8218 315.5633 0246706 149.7556 211.8112 13.95168555201907
12242,2025-08-08T18:47:31.404768,13.99454203,0.0067435,98.9097,167.8855,21.728,338.6722,944.739,846.637,0.00057525,US,SMALL,0 DELTA 1 DEB,1 12242U 78026CK  25220.78300237  .00000812  00000-0  57525-3 0  9993,2 12242  98.9097 167.8855 0067435  21.7280 338.6722 13.99454203265835
12246,2025-08-08T15:15:23.755104,14.04885992,0.0055487,99.1143,102.4316,119.147,295.3709,917.183,836.671,0.00024722,US,MEDIUM,0 DELTA 1 DEB,1 12246U 78026CP  25220.63569161  .00000358  00000-0  24722-3 0  9992,2 12246  99.1143 102.4316 0055487 119.1470 295.3709 14.04885992274168
12250,2025-08-08T00:38:33.338400,14.29753644,0.0021568,98.8287,245.3318,273.0266,116.5087,808.022,777.091,0.00029313,US,SMALL,0 DELTA 1 DEB,1 12250U 78026CT  25220.02677475  .00000708  00000-0  29313-3 0  9998,2 12250  98.8287 245.3318 0021568 273.0266 116.5087 14.29753644303535
12255,2025-08-06T13:13:12.886176,14.02444456,0.0019195,98.9147,162.5968,177.026,183.1023,899.287,871.402,0.00029415,US,SMALL,0 DELTA 1 DEB,1 12255U 78026CY  25218.55084359  .00000409  00000-0  29415-3 0  9992,2 12255  98.9147 162.5968 0019195 177.0260 183.1023 14.02444456585617
12256,2025-08-08T19:21:05.282496,14.20682991,0.0087078,99.0926,268.6646,112.8591,248.1808,885.752,760.339,0.0011749,US,SMALL,0 DELTA 1 DEB,1 12256U 78026CZ  25220.80631114  .00002585  00000-0  11749-2 0  9998,2 12256  99.0926 268.6646 0087078 112.8591 248.1808 14.20682991268771
12257,2025-08-08T19:15:09.350784,14.04526566,0.0102123,99.2776,164.7757,60.0449,301.0809,952.268,804.061,0.000161,US,SMALL,0 DELTA 1 DEB,1 12257U 78026DA  25220.80219156  .00000223  00000-0  16100-3 0  9991,2 12257  99.2776 164.7757 0102123  60.0449 301.0809 14.04526566272469
12262,2025-08-08T22:11:48.880320,14.18667528,0.0095945,98.995,358.4253,17.7356,106.9542,899.022,760.707,0.00086239,US,SMALL,0 DELTA 1 DEB,1 12262U 78026DF  25220.92487130  .00001826  00000-0  86239-3 0  9999,2 12262  98.9950 358.4253 0095945  17.7356 106.9542 14.18667528260515
12263,2025-08-08T20:49:02.892576,13.32912817,0.0426273,98.9202,8.9747,57.0782,307.0603,1456.097,815.5,-0.0013733,US,SMALL,0 DELTA 1 DEB,1 12263U 78026DG  25220.86739459 -.00001150  00000-0 -13733-2 0  9997,2 12263  98.9202   8.9747 0426273  57.0782 307.0603 13.32912817128146
12265,2025-08-07T22:43:12.625824,14.35256684,0.0109574,98.837,29.3772,291.0895,223.6281,852.587,695.844,0.0010042,US,SMALL,0 DELTA 1 DEB,1 12265U 78026DJ  25219.94667391  .00003028  00000-0  10042-2 0  9995,2 12265  98.8370  29.3772 0109574 291.0895 223.6281 14.35256684268603
12266,2025-08-08T09:25:57.021312,13.97449129,0.0144711,98.7392,18.0485,189.9881,169.8399,1008.005,797.283,0.0009466,US,SMALL,0 DELTA 1 DEB,1 12266U 78026DK  25220.39302108  .00001413  00000-0  94660-3 0  9994,2 12266  98.7392  18.0485 0144711 189.9881 169.8399 13.97449129240195
12269,2025-08-09T05:31:26.920416,14.87330085,0.0043707,98.0855,207.4935,69.8752,304.5963,636.81,575.757,0.0010432,US,SMALL,0 DELTA 1 DEB,1 12269U 78026DN  25221.23017269  .00009534  00000-0  10432-2 0  9998,2 12269  98.0855 207.4935 0043707  69.8752 304.5963 14.87330085347907
12270,2025-08-08T16:55:46.832160,13.90656505,0.0065456,99.0454,147.0768,294.1722,130.5598,974.145,878.521,3.9603e-05,US,SMALL,0 DELTA 1 DEB,1 12270U 78026DP  25220.70540315  .00000007  00000-0  39603-4 0  9993,2 12270  99.0454 147.0768 0065456 294.1722 130.5598 13.90656505256870
12274,2025-08-09T09:44:25.738080,12.22276184,0.0105165,102.3374,186.0491,207.397,308.5133,1666.364,1498.925,0.00029863,US,SMALL,0 DELTA 1 DEB,1 12274U 76077DF  25221.40585345 -.00000012  00000-0  29863-3 0  9994,2 12274 102.3374 186.0491 0105165 207.3970 308.5133 12.22276184986149
12278,2025-08-08T17:46:14.111904,14.44017913,0.0040095,99.1228,24.1652,157.3317,218.7786,773.817,716.695,0.00091222,US,SMALL,0 DELTA 1 DEB,1 12278U 78026DW  25220.74044111  .00003100  00000-0  91222-3 0  9999,2 12278  99.1228  24.1652 0040095 157.3317 218.7786 14.44017913298066
12283,2025-08-08T19:04:19.432704,14.27086058,0.0091976,98.8366,228.6563,68.1368,111.7858,867.525,735.454,9.8023e-05,US,SMALL,0 DELTA 1 DEB,1 12283U 78026EB  25220.79466936  .00000205  00000-0  98023-4 0  9993,2 12283  98.8366 228.6563 0091976  68.1368 111.7858 14.27086058282008
12284,2025-08-09T04:18:21.006720,14.04381417,0.0090417,98.913,302.8111,264.0995,124.7219,944.278,813.051,0.00048932,US,SMALL,0 DELTA 1 DEB,1 12284U 78026EC  25221.17940980  .00000763  00000-0  48932-3 0  9995,2 12284  98.9130 302.8111 0090417 264.0995 124.7219 14.04381417260839
12285,2025-08-09T11:03:08.667072,14.11960704,0.0051836,99.0671,224.5635,130.8131,229.7552,890.154,815.19,0.0003176,US,SMALL,0 DELTA 1 DEB,1 12285U 78026ED  25221.46051698  .00000543  00000-0  31760-3 0  9994,2 12285  99.0671 224.5635 0051836 130.8131 229.7552 14.11960704119971
12288,2025-08-08T20:33:41.943744,14.21409589,0.0078241,99.1526,192.5094,329.6382,59.3613,876.915,764.268,0.00053687,US,SMALL,0 DELTA 1 DEB,1 12288U 78026EG  25220.85673546  .00001162  00000-0  53687-3 0  9991,2 12288  99.1526 192.5094 0078241 329.6382  59.3613 14.21409589286725
12290,2025-08-08T17:27:48.860640,14.13190881,0.0082165,99.1147,212.595,103.0265,258.0095,907.853,789.098,0.00017958,US,SMALL,0 DELTA 1 DEB,1 12290U 78026EJ  25220.72764885  .00000301  00000-0  17958-3 0  9992,2 12290  99.1147 212.5950 0082165 103.0265 258.0095 14.13190881269653
12291,2025-08-09T05:52:22.777248,14.33571593,0.0041918,99.2792,30.9031,240.6355,300.38,809.824,749.815,0.00088499,US,MEDIUM,0 DELTA 1 DEB,1 12291U 78026EK  25221.24470807  .00002424  00000-0  88499-3 0  9995,2 12291  99.2792  30.9031 0041918 240.6355 300.3800 14.33571593289261
12292,2025-08-09T05:51:07.363008,14.04049671,0.0049578,98.9159,326.9325,37.538,352.4717,915.791,843.824,0.00037028,US,SMALL,0 DELTA 1 DEB,1 12292U 78026EL  25221.24383522  .00000549  00000-0  37028-3 0  9991,2 12292  98.9159 326.9325 0049578  37.5380 352.4717 14.04049671246768
12294,2025-08-08T11:22:07.322304,14.44163038,0.0092451,98.538,197.7563,127.0153,233.9542,810.631,678.927,0.00018673,US,SMALL,0 DELTA 1 DEB,1 12294U 78026EN  25220.47369586  .00000627  00000-0  18673-3 0  9993,2 12294  98.5380 197.7563 0092451 127.0153 233.9542 14.44163038328781
12329,2025-07-29T07:58:41.127744,10.80357876,0.188585,65.2673,196.2511,283.3968,56.4488,3895.41,635.338,0.00016575,JPN,SMALL,0 KYOKKO 1 DEB,1 12329U 78014C   25210.33242046  .00000100  00000-0  16575-3 0  9999,2 12329  65.2673 196.2511 1885850 283.3968  56.4488 10.80357876852732
12330,2025-08-08T16:01:01.358976,10.78359632,0.1885661,65.3793,350.2249,84.9435,296.2794,3907.934,644.163,1.6258e-05,JPN,MEDIUM,0 KYOKKO 1 DEB,1 12330U 78014D   25220.66737684 -.00000024  00000-0  16258-4 0  9990,2 12330  65.3793 350.2249 1885661  84.9435 296.2794 10.78359632632876
12331,2025-08-07T23:10:36.590592,10.9846546,0.1783518,64.8241,218.0291,84.1205,295.9189,3694.719,645.525,0.00041511,JPN,SMALL,0 KYOKKO 1 DEB,1 12331U 78014E   25219.96570128  .00000304  00000-0  41511-3 0  9999,2 12331  64.8241 218.0291 1783518  84.1205 295.9189 10.98465460889510
12332,2025-08-08T21:34:26.586048,12.32360992,0.072737,66.0575,71.3977,222.898,150.6026,2115.035,963.275,0.00011559,CIS,MEDIUM,0 COSMOS 839 DEB,1 12332U 76067AY  25220.89891882 -.00000020  00000-0  11559-3 0  9998,2 12332  66.0575  71.3977 0727370 222.8980 150.6026 12.32360992 54313
